OBJECT_NAME,OBJECT_ID,EPOCH,MEAN_MOTION,ECCENTRICITY,INCLINATION,RA_OF_ASC_NODE,ARG_OF_PERICENTER,MEAN_ANOMALY,EPHEMERIS_TYPE,CLASSIFICATION_TYPE,NORAD_CAT_ID,ELEMENT_SET_NO,REV_AT_EPOCH,BSTAR,MEAN_MOTION_DOT,MEAN_MOTION_DDOT
TIANZHOU-10,2026-102A,2026-06-05T01:46:04.270656,15.60275999,.00095692,41.4694,35.6942,344.8796,15.1755,0,U,69049,999,393,.31557792E-3,.26328E-3,0
QIANFAN-127,2026-104A,2026-06-05T19:04:14.881152,14.21690796,.0005332,88.9863,342.9053,137.5189,222.6415,0,U,69073,999,347,.4491E-4,.113E-5,0
QIANFAN-128,2026-104B,2026-06-05T18:42:47.084832,14.18045851,.0004606,88.9864,342.9221,134.7829,225.3735,0,U,69074,999,346,.49768E-4,.116E-5,0
QIANFAN-129,2026-104C,2026-06-05T19:45:52.522848,14.25500443,.0004964,88.9863,342.8908,143.2606,216.8928,0,U,69075,999,348,.50578E-4,.134E-5,0
QIANFAN-130,2026-104D,2026-06-05T20:05:24.442080,14.18735216,.0004658,88.9863,342.9117,125.9192,234.2430,0,U,69076,999,347,.58579E-4,.136E-5,0
QIANFAN-131,2026-104E,2026-06-05T19:26:09.927168,14.20505624,.0004182,88.9862,342.9074,141.2172,218.9319,0,U,69077,999,347,.40246E-4,.101E-5,0
QIANFAN-132,2026-104F,2026-06-05T18:39:12.544128,14.18147130,.0005022,88.9863,342.9215,133.6335,226.5271,0,U,69078,999,346,.511E-4,.119E-5,0
QIANFAN-133,2026-104G,2026-06-05T19:58:13.797696,14.19028994,.0004587,88.9863,342.9109,143.3375,216.8130,0,U,69079,999,347,.55732E-4,.131E-5,0
QIANFAN-134,2026-104H,2026-06-05T19:50:18.303072,14.19324433,.0005486,88.9863,342.9101,128.0388,232.1297,0,U,69080,999,347,.5246E-4,.125E-5,0
QIANFAN-135,2026-104J,2026-06-05T19:43:23.284128,14.19621908,.0004424,88.9864,342.9095,155.0754,205.0650,0,U,69081,999,347,.51179E-4,.122E-5,0
QIANFAN-136,2026-104K,2026-06-05T19:37:33.459168,14.19914203,.0004866,88.9863,342.9087,143.5763,216.5759,0,U,69082,999,347,.50108E-4,.121E-5,0
QIANFAN-137,2026-104L,2026-06-05T19:56:04.964064,14.25196538,.0005552,88.9863,342.8918,136.8924,223.2705,0,U,69083,999,348,.48826E-4,.129E-5,0
QIANFAN-138,2026-104M,2026-06-05T19:20:42.971424,14.20801731,.0004403,88.9863,342.9070,145.3344,214.8134,0,U,69084,999,347,.48675E-4,.12E-5,0
QIANFAN-139,2026-104N,2026-06-05T19:13:50.723328,14.21102495,.0004332,88.9864,342.9063,135.8768,224.2769,0,U,69085,999,347,.51287E-4,.126E-5,0
QIANFAN-140,2026-104P,2026-06-05T19:07:25.904640,14.21392074,.0004386,88.9863,342.9055,140.3176,219.8337,0,U,69086,999,347,.47863E-4,.119E-5,0
QIANFAN-141,2026-104Q,2026-06-05T19:01:33.917952,14.21633485,.0004004,88.9863,342.9049,136.4275,223.7233,0,U,69087,999,347,.48625E-4,.121E-5,0
QIANFAN-142,2026-104R,2026-06-05T18:54:19.700064,14.21952253,.0005239,88.9863,342.9040,128.2918,231.8745,0,U,69088,999,347,.44506E-4,.113E-5,0
QIANFAN-143,2026-104S,2026-06-05T18:36:27.991008,14.23170869,.0004547,88.9863,342.9022,130.2695,229.8895,0,U,69089,999,347,.48452E-4,.124E-5,0
QIANFAN-144,2026-104T,2026-06-05T18:44:32.777088,14.22581640,.0003911,88.9863,342.9031,121.7123,238.4450,0,U,69090,999,347,.50118E-4,.126E-5,0
CZ-6A R/B,2026-104U,2026-06-05T18:46:27.274368,14.57457691,.0093464,89.0135,342.7969,24.5141,336.0470,0,U,69091,999,355,.63973E-4,.327E-5,0
ZHUQUE-2E R/B,2026-105A,2026-06-05T04:25:08.863104,15.13745133,.04622376,88.9715,195.9011,344.2735,14.4536,0,U,69095,999,333,.45699234E-3,.185388E-2,-.76242E-6
2026-106A,2026-106A,2026-06-04T15:09:10.862208,15.11037132,.0013466,97.5095,237.9435,203.5034,156.5582,0,U,69097,999,308,.543886E-3,.9052E-4,0
2026-106B,2026-106B,2026-06-04T15:16:55.543008,15.09575067,.00142668,97.5082,237.9319,199.5733,160.4950,0,U,69098,999,308,.42602016E-3,.6796E-4,0
2026-106C,2026-106C,2026-06-04T15:08:24.576864,15.11076088,.00135546,97.5097,237.9445,204.3760,155.6830,0,U,69099,999,308,.53277866E-3,.8876E-4,0
2026-106D,2026-106D,2026-06-04T15:05:56.171040,15.11202473,.00131226,97.5062,237.9411,207.0214,153.0334,0,U,69100,999,308,.49447297E-3,.826E-4,0
2026-106E,2026-106E,2026-06-04T15:00:25.283232,15.11460406,.0015124,97.5073,237.9468,208.9127,151.1267,0,U,69101,999,308,.54174936E-3,.9128E-4,0
LIJIAN-1 R/B,2026-106F,2026-06-04T16:16:40.551168,15.52441162,.01741132,97.5038,239.2677,300.4748,57.9407,0,U,69102,999,317,.34584768E-3,.4031E-3,.2636865E-5
DRAGON CRS-34,2026-107A,2026-06-05T18:33:21.960576,15.49621928,.0007059,51.6332,356.5983,137.5864,222.5671,0,U,69103,999,56998,.17151E-3,.922E-4,0
QIANFAN-145,2026-108A,2026-06-05T18:04:18.151104,14.16076023,.0015498,89.0120,23.4939,149.6667,210.5421,0,U,69104,999,272,.14831E-3,.307E-5,0
QIANFAN-146,2026-108B,2026-06-05T18:17:01.860576,14.23383738,.0015806,89.0123,23.4774,148.2147,212.0003,0,U,69105,999,273,.15012E-3,.355E-5,0
QIANFAN-147,2026-108C,2026-06-05T17:46:08.942592,14.17032812,.0015491,89.0119,23.4919,146.8012,213.4151,0,U,69106,999,272,.14547E-3,.307E-5,0
QIANFAN-148,2026-108D,2026-06-05T19:19:33.461760,14.17402069,.0015989,89.0120,23.4834,151.5554,208.6510,0,U,69107,999,273,.15077E-3,.32E-5,0
QIANFAN-149,2026-108E,2026-06-05T19:16:06.729888,14.17856554,.0015636,89.0122,23.4834,150.8047,209.4019,0,U,69108,999,273,.1504E-3,.322E-5,0
QIANFAN-150,2026-108F,2026-06-05T19:04:36.621984,14.18305022,.0015669,89.0123,23.4824,152.5559,207.6461,0,U,69109,999,273,.14416E-3,.311E-5,0
QIANFAN-151,2026-108G,2026-06-05T18:57:07.888896,14.18800783,.0015789,89.0122,23.4814,151.1130,209.0937,0,U,69110,999,273,.16112E-3,.35E-5,0
QIANFAN-152,2026-108H,2026-06-05T18:50:59.435232,14.19418084,.0015001,89.0121,23.4806,151.0272,209.1754,0,U,69111,999,273,.15626E-3,.343E-5,0
QIANFAN-153,2026-108J,2026-06-05T18:43:55.530048,14.19641275,.0016206,89.0119,23.4795,151.0054,209.2039,0,U,69112,999,273,.15605E-3,.344E-5,0
QIANFAN-154,2026-108K,2026-06-05T18:34:53.305248,14.20189229,.0015875,89.0123,23.4793,148.9182,211.2951,0,U,69113,999,273,.14621E-3,.327E-5,0
QIANFAN-155,2026-108L,2026-06-05T18:38:16.612224,14.19534628,.0016585,89.0123,23.4797,149.2649,210.9515,0,U,69114,999,273,.15595E-3,.343E-5,0
QIANFAN-156,2026-108M,2026-06-05T18:29:00.394080,14.20957050,.0016216,89.0126,23.4792,150.5138,209.6971,0,U,69115,999,273,.14591E-3,.331E-5,0
QIANFAN-157,2026-108N,2026-06-05T17:55:56.650080,14.24907587,.0016509,89.0123,23.4753,155.4291,204.7692,0,U,69116,999,273,.15413E-3,.375E-5,0
QIANFAN-158,2026-108P,2026-06-05T20:02:13.510176,14.21846631,.0016155,89.0122,23.4697,151.6523,208.5551,0,U,69117,999,274,.15576E-3,.358E-5,0
QIANFAN-159,2026-108Q,2026-06-05T18:15:38.541600,14.22292814,.0015847,89.0121,23.4769,151.7199,208.4857,0,U,69118,999,273,.15263E-3,.354E-5,0
QIANFAN-160,2026-108R,2026-06-05T18:11:27.618720,14.22716948,.0015578,89.0123,23.4769,151.5342,208.6704,0,U,69119,999,273,.35605E-4,.94E-6,0
QIANFAN-161,2026-108S,2026-06-05T18:06:58.993344,14.23188126,.0015574,89.0123,23.4763,152.2877,207.9148,0,U,69120,999,273,.14597E-3,.345E-5,0
QIANFAN-162,2026-108T,2026-06-05T18:04:27.178176,14.23623578,.0015411,89.0122,23.4760,153.4812,206.7172,0,U,69121,999,273,.15101E-3,.359E-5,0
CZ-8 R/B,2026-108U,2026-06-05T18:37:43.984128,14.39191229,.0068946,89.0117,23.4225,57.7208,303.0647,0,U,69122,999,276,.91515E-4,.307E-5,0
SMILE,2026-109A,2026-05-24T15:40:35.120928,14.57062785,.00091232,70.0007,229.2745,259.5159,100.4951,0,U,69123,999,80,-.42378883E-3,-.1976E-4,0
STARLINK-37726,2026-110A,2026-06-05T20:00:04.000032,15.52246530,.0002072,97.2852,352.9480,108.4022,73.1643,0,U,69124,999,383,-.54337E-1,-.2870163E-1,0
STARLINK-37722,2026-110B,2026-06-05T20:00:04.000032,15.67714067,.0001306,97.2843,353.0525,85.0720,350.6452,0,U,69125,999,388,-.15927E-1,-.1550288E-1,0
STARLINK-37715,2026-110C,2026-06-05T13:21:26.034912,15.80855594,.0001808,97.2837,352.7856,139.4930,220.6473,0,U,69126,999,380,.70626E-3,.137545E-2,0
STARLINK-37706,2026-110D,2026-06-05T16:22:43.104576,15.80394625,.0001476,97.2839,352.9207,117.8668,242.2750,0,U,69127,999,382,-.2913E-2,-.516339E-2,0
STARLINK-37723,2026-110E,2026-06-05T17:52:46.099200,15.80601525,.0001077,97.2838,352.9889,104.9989,255.1398,0,U,69128,999,383,-.10177E-2,-.189046E-2,0
STARLINK-37720,2026-110F,2026-06-05T20:00:04.000032,15.52247409,.0002029,97.2852,352.9665,107.6713,122.9276,0,U,69129,999,383,-.56306E-1,-.296001E-1,0
STARLINK-37533,2026-110G,2026-06-05T17:49:28.479072,15.80895707,.0001117,97.2843,352.9918,76.4093,283.7300,0,U,69130,999,383,.81444E-3,.159321E-2,0
STARLINK-37530,2026-110H,2026-06-05T17:48:24.315840,15.80929095,.0001441,97.2839,352.9939,93.2010,266.9423,0,U,69131,999,383,.12912E-2,.255896E-2,0
STARLINK-37660,2026-110J,2026-06-05T20:00:04.000032,15.69543414,.0001661,97.2842,353.0670,75.0741,35.3261,0,U,69132,999,383,-.18377E-1,-.1917271E-1,0
STARLINK-37633,2026-110K,2026-06-05T20:00:04.000032,15.70578121,.0001872,97.2843,353.0728,77.8927,45.1383,0,U,69133,999,383,-.21177E-1,-.2254988E-1,0
STARLINK-37361,2026-110L,2026-06-05T17:45:08.849664,15.80898683,.0001306,97.2844,352.9962,72.2244,287.9167,0,U,69134,999,383,.91665E-3,.179782E-2,0
STARLINK-37372,2026-110M,2026-06-05T20:00:04.000032,15.73170280,.0001925,97.2840,353.0872,79.6528,75.9360,0,U,69135,999,383,-.21689E-1,-.2588583E-1,0
STARLINK-37531,2026-110N,2026-06-05T20:00:04.000032,15.76052360,.0001586,97.2842,353.0944,76.6333,96.0041,0,U,69136,999,383,-.10496E-1,-.1439768E-1,0
STARLINK-37662,2026-110P,2026-06-05T20:00:04.000032,15.71497979,.0001797,97.2846,353.0876,71.6993,80.3613,0,U,69137,999,383,-.21777E-1,-.2387985E-1,0
STARLINK-37658,2026-110Q,2026-06-05T20:00:04.000032,15.64376406,.0001745,97.2849,353.0564,81.5327,3.2164,0,U,69138,999,383,-.30134E-1,-.2510746E-1,0
STARLINK-37659,2026-110R,2026-06-05T20:00:04.000032,15.62420827,.0001731,97.2851,353.0469,78.4041,343.8142,0,U,69139,999,383,-.32093E-1,-.2479768E-1,0
STARLINK-37653,2026-110S,2026-06-05T20:00:04.000032,15.61090619,.0001557,97.2852,353.0463,81.4489,339.1445,0,U,69140,999,383,-.34589E-1,-.2529699E-1,0
STARLINK-37654,2026-110T,2026-06-05T20:00:04.000032,15.72061445,.0001777,97.2842,353.0946,90.8238,83.2756,0,U,69141,999,383,-.22036E-1,-.2518169E-1,0
